ISS (ZARYA)
1 25544U 98067A   26209.15252568  .00010831  00000+0  20282-3 0  9992
2 25544  51.6320  97.3682 0007093 345.6120  14.4666 15.49220842578109
SAUDISAT 1C (SO-50)
1 27607U 02058C   26208.68108592  .00001287  00000+0  16839-3 0  9991
2 27607  64.5529   3.6894 0074146 254.9838 104.3054 14.83123076270467
DIWATA-2B
1 43678U 18084H   26209.18059542  .00001598  00000+0  13154-3 0  9991
2 43678  98.1218  47.1878 0011937  43.4683 316.7478 15.00603078422366
RADFXSAT (FOX-1B)
1 43017U 17073E   26209.14690911  .00007868  00000+0  33964-3 0  9999
2 43017  97.4653  75.5276 0148916 186.4494 173.4825 15.13224540471580
LILACSAT-2
1 40908U 15049K   26209.21111516  .00020547  00000+0  33290-3 0  9994
2 40908  97.4620 247.6414 0008677 103.7627 256.4592 15.52779418602115
TEVEL2-3
1 63218U 25052J   26209.18813017  .00022063  00000+0  64589-3 0  9999
2 63218  97.3830 105.1983 0002696  38.5202 321.6233 15.35247884 76383
